[Satellite]
VERSION=1.1
NAME=IRIDIUM 55 [+]
NICKNAME=IRIDIUM 55 [+]
TLE1=1 25272U 98019A   15055.54792594  .00000202  00000-0  65105-4 0  9991
TLE2=2 25272  86.3931 279.6551 0001977 104.6827 255.4588 14.34215238885143
